BEIDOU 3 (C01)          
1 36287U 10001A   22229.87970047 -.00000290  00000+0  00000+0 0  9997
2 36287   1.9874  50.1652 0004031  49.8945 323.2606  1.00272300 46134
BEIDOU 5 (C06)          
1 36828U 10036A   22230.54110168 -.00000120  00000+0  00000+0 0  9994
2 36828  54.2013 175.6599 0030551 190.2013 263.5590  1.00280988 44202
BEIDOU 6 (C04)          
1 37210U 10057A   22230.88808314 -.00000118  00000+0  00000+0 0  9994
2 37210   0.9609  53.8432 0005968 130.9625 262.1508  1.00273263 43261
BEIDOU 7 (C07)          
1 37256U 10068A   22230.59724745 -.00000190  00000+0  00000+0 0  9999
2 37256  50.1034 288.9052 0023792 200.1989 160.1397  1.00287845 42776
BEIDOU 8 (C08)          
1 37384U 11013A   22230.50876838 -.00000171  00000+0  00000+0 0  9993
2 37384  60.3823  53.6429 0023331 177.1576  26.1522  1.00290673 41645
BEIDOU 9 (C09)          
1 37763U 11038A   22230.32979748 -.00000072  00000+0  00000+0 0  9995
2 37763  54.4837 178.1597 0099217 228.3543 134.3624  1.00268018 40623
BEIDOU 10 (C10)         
1 37948U 11073A   22230.10300024 -.00000148  00000+0  00000+0 0  9994
2 37948  50.2180 288.5550 0085901 218.5794 312.3100  1.00280499 39376
BEIDOU 11 (C05)         
1 38091U 12008A   22229.93515987  .00000047  00000+0  00000+0 0  9995
2 38091   1.6972  69.0119 0013457 344.6178 308.0251  1.00275083 38441
BEIDOU 12 (C11)         
1 38250U 12018A   22229.98732861 -.00000116  00000+0  00000+0 0  9998
2 38250  56.6774 351.5286 0021424 249.3055 177.1191  1.86234423 70238
BEIDOU 13 (C12)         
1 38251U 12018B   22229.86996247 -.00000116  00000+0  00000+0 0  9996
2 38251  56.5931 350.8527 0012231 248.6935 143.2234  1.86234201 70234
BEIDOU 15 (C14)         
1 38775U 12050B   22230.32632850 -.00000054  00000+0  00000+0 0  9994
2 38775  55.4347 109.6030 0013543 329.2479 204.6750  1.86231460 67616
BEIDOU 16 (C02)         
1 38953U 12059A   22230.51419424 -.00000184  00000+0  00000+0 0  9996
2 38953   2.1393  84.1376 0009379 303.9719 207.9347  1.00271258 35889
BEIDOU 17 (C31)         
1 40549U 15019A   22230.69424362 -.00000185  00000+0  00000+0 0  9996
2 40549  51.7785 312.0344 0038059 195.3007 164.9313  1.00284155 27062
BEIDOU 18 (C57)         
1 40748U 15037A   22230.59611953 -.00000119  00000+0  00000+0 0  9997
2 40748  55.8438 349.6574 0003039  62.2486   5.8724  1.86233430 48074
BEIDOU 19 (C58)         
1 40749U 15037B   22229.82816968 -.00000118  00000+0  00000+0 0  9994
2 40749  55.8479 349.6734 0002122 334.1673  73.3293  1.86232215 48058
BEIDOU 20 (C18)         
1 40938U 15053A   22230.51470225 -.00000114  00000+0  00000+0 0  9998
2 40938  51.4025 275.1583 0046509 198.8460 134.6156  1.00279141 25327
BEIDOU IGSO-6 (C13)     
1 41434U 16021A   22230.91497479 -.00000147  00000+0  00000+0 0  9996
2 41434  58.1894  52.1848 0044285 215.0250 125.3930  1.00270810 23455
BEIDOU-2 G7 (C03)       
1 41586U 16037A   22230.82506764 -.00000361  00000+0  00000+0 0  9997
2 41586   1.5089  67.1780 0008070 359.1196 308.3742  1.00273283 22767
BEIDOU-3 M1 (C19)       
1 43001U 17069A   22230.37063390 -.00000054  00000+0  00000+0 0  9999
2 43001  55.5869 109.6100 0009513 298.2931  61.6564  1.86231766 32550
BEIDOU-3 M2 (C20)       
1 43002U 17069B   22230.55843152 -.00000055  00000+0  00000+0 0  9993
2 43002  55.5868 109.6398 0008121 322.7210 206.0748  1.86231374 32549
BEIDOU-3 M3 (C27)       
1 43107U 18003A   22230.61408078 -.00000120  00000+0  00000+0 0  9992
2 43107  55.2960 350.5465 0004877  70.9734 301.3487  1.86232528 31319
BEIDOU-3 M4 (C28)       
1 43108U 18003B   22230.53678913 -.00000120  00000+0  00000+0 0  9991
2 43108  55.2892 350.5375 0002621 229.0009 135.0428  1.86230973 31310
BEIDOU-3 M5 (C21)       
1 43207U 18018A   22229.90162684 -.00000050  00000+0  00000+0 0  9991
2 43207  55.5455 109.7375 0005959 350.5372   9.5210  1.86231691 30683
BEIDOU-3 M6 (C22)       
1 43208U 18018B   22229.96829415 -.00000051  00000+0  00000+0 0  9991
2 43208  55.5453 109.7406 0007602 312.0606  47.9409  1.86231587 30687
BEIDOU-3 M7 (C29)       
1 43245U 18029A   22230.75005230 -.00000121  00000+0  00000+0 0  9992
2 43245  55.2064 348.3063 0000999 130.0169 243.9394  1.86232717 29851
BEIDOU-3 M8 (C30)       
1 43246U 18029B   22230.78363617 -.00000121  00000+0  10000-3 0  9997
2 43246  55.2033 348.3345 0003148  12.4824  70.5731  1.86232947 29844
BEIDOU IGSO-7 (C16)     
1 43539U 18057A   22230.53768964 -.00000125  00000+0  00000+0 0  9999
2 43539  55.0899 175.1821 0052699 228.9795 228.9832  1.00291771 15132
BEIDOU-3 M9 (C23)       
1 43581U 18062A   22230.61439748  .00000068  00000+0  00000+0 0  9991
2 43581  54.2612 229.9556 0005995 271.0528 269.7173  1.86231896 27585
BEIDOU-3 M10 (C24)      
1 43582U 18062B   22229.88850877  .00000061  00000+0  00000+0 0  9992
2 43582  54.2611 229.9705 0004794 335.9023 170.0295  1.86232264 27575
BEIDOU-3 M11 (C25)      
1 43602U 18067A   22230.68136896  .00000070  00000+0  00000+0 0  9998
2 43602  54.3436 228.5636 0006620   0.1879 358.6182  1.86231629 27070
BEIDOU-3 M12 (C26)      
1 43603U 18067B   22230.42060527  .00000068  00000+0  00000+0 0  9995
2 43603  54.3409 228.5389 0004029 340.4823 113.8557  1.86231573 27093
BEIDOU-3 M13 (C32)      
1 43622U 18072A   22230.40421986 -.00000054  00000+0  00000+0 0  9996
2 43622  55.5132 109.2745 0006139 297.2488 175.2277  1.86231884 26603
BEIDOU-3 M14 (C33)      
1 43623U 18072B   22229.78475969 -.00000050  00000+0  00000+0 0  9992
2 43623  55.5151 109.2866 0004381 327.9307 179.4655  1.86231946 26590
BEIDOU-3 M15 (C34)      
1 43647U 18078A   22230.84258208 -.00000121  00000+0  10000-3 0  9992
2 43647  55.1017 348.4570 0005521  13.7060  18.5108  1.86232661 26125
BEIDOU-3 M16 (C35)      
1 43648U 18078B   22229.89849036 -.00000119  00000+0  00000+0 0  9993
2 43648  55.0978 348.4949 0003793  32.9340 353.9912  1.86232308 26121
BEIDOU-3 G1 (C59)       
1 43683U 18085A   22230.53183372 -.00000286  00000+0  00000+0 0  9992
2 43683   0.9555 156.1689 0004488  15.9061 126.3181  1.00272583 14030
BEIDOU-3 M17 (C36)      
1 43706U 18093A   22230.00918512  .00000063  00000+0  00000+0 0  9993
2 43706  54.3440 229.8657 0011240 273.5486  86.3290  1.86232043 25480
BEIDOU-3 M18 (C37)      
1 43707U 18093B   22230.14614338  .00000064  00000+0  00000+0 0  9999
2 43707  54.3433 229.8526 0009410 294.3081 248.6663  1.86232239 25479
BEIDOU-3 IGSO-1 (C38)   
1 44204U 19023A   22230.38936515 -.00000208  00000+0  00000+0 0  9997
2 44204  56.6507  52.3046 0022443 188.6169 344.4171  1.00291150 12331
BEIDOU-2 G8             
1 44231U 19027A   22230.81317801 -.00000254  00000+0  00000+0 0  9991
2 44231   1.0081  78.5199 0005716 112.1864 213.6705  1.00274823 12045
BEIDOU-3 IGSO-2 (C39)   
1 44337U 19035A   22230.53539797 -.00000134  00000+0  00000+0 0  9993
2 44337  55.1221 171.1696 0026022 193.4943 273.9349  1.00285410 11678
BEIDOU-3 M23 (C45)      
1 44542U 19061A   22230.48226796  .00000068  00000+0  00000+0 0  9991
2 44542  54.5706 230.0041 0008673 325.4933  34.4583  1.86231493 19746
BEIDOU-3 M24 (C46)      
1 44543U 19061B   22230.16332862  .00000065  00000+0  00000+0 0  9996
2 44543  54.5677 229.9845 0006330 307.1422 110.3657  1.86231791 19737
BEIDOU-3 IGSO-3         
1 44709U 19073A   22230.59259737 -.00000183  00000+0  10000-3 0  9996
2 44709  57.1636 295.7427 0027354 179.9344 183.4927  1.00289684 10427
BEIDOU-3 M21            
1 44793U 19078A   22230.85882575 -.00000121  00000+0  10000-3 0  9997
2 44793  54.9502 348.4703 0005622  22.8708 334.0379  1.86232330 18607
BEIDOU-3 M22            
1 44794U 19078B   22229.72938167 -.00000119  00000+0  00000+0 0  9993
2 44794  54.9247 348.4990 0003593  22.3615 209.0806  1.86232802 18586
BEIDOU-3 M19            
1 44864U 19090A   22230.48325601 -.00000055  00000+0  00000+0 0  9992
2 44864  55.4480 109.4784 0016281 273.4012 297.9024  1.86232007 18184
BEIDOU-3 M20            
1 44865U 19090B   22229.94335704 -.00000051  00000+0  00000+0 0  9993
2 44865  55.4503 109.5288 0014729 288.5734  10.6105  1.86231985 18144
BEIDOU-3 G2             
1 45344U 20017A   22230.51340942 -.00000147  00000+0  00000+0 0  9998
2 45344   2.0307 355.1625 0004752 139.7627  96.7814  1.00272129  9237
BEIDOU-3 G3             
1 45807U 20040A   22230.58940875 -.00000360  00000+0  00000+0 0  9993
2 45807   1.3038 305.0418 0007334 329.1389  15.4734  1.00269278  8045
